     4.02           N: GNSS NAV DATA    M: Mixed            RINEX VERSION / TYPE
BNC 2.13.4          user                20260406 190002 UTC PGM / RUN BY / DATE
Source: RTCM_3.3 products.igs-ip.net/BCEP00BKG0             COMMENT
    18                                                      LEAP SECONDS
                                                            END OF HEADER
S37 2026 04 06 19 57 20 2.328306436539e-09 0.000000000000e+00 9.999000000000e+08
    -2.538447736000e+04 8.293750000000e-04 0.000000000000e+00 4.700000000000e+01
     3.367325576000e+04 2.187500000000e-05 0.000000000000e+00 8.192000000000e+03
     5.054160000000e+01-1.056000000000e-03 0.000000000000e+00 1.500000000000e+01
> EPH S21 SBAS
S21 2026 04 06 19 57 36 0.000000000000e+00 0.000000000000e+00 9.999000000000e+08
     4.200468400000e+04 0.000000000000e+00 0.000000000000e+00 4.700000000000e+01
    -3.674932960000e+03 0.000000000000e+00 0.000000000000e+00 8.192000000000e+03
     0.000000000000e+00 0.000000000000e+00 0.000000000000e+00 9.800000000000e+01
> EPH S22 SBAS
S22 2026 04 06 19 57 36 0.000000000000e+00 0.000000000000e+00 9.999000000000e+08
    -3.389392800000e+04 0.000000000000e+00 0.000000000000e+00 4.700000000000e+01
     2.508018800000e+04 0.000000000000e+00 0.000000000000e+00 8.192000000000e+03
     0.000000000000e+00 0.000000000000e+00 0.000000000000e+00 1.500000000000e+01
> EPH S23 SBAS
S23 2026 04 06 19 57 52 0.000000000000e+00 0.000000000000e+00 9.999000000000e+08
     3.866796400000e+04 0.000000000000e+00 0.000000000000e+00 4.700000000000e+01
     1.681330800000e+04 0.000000000000e+00 0.000000000000e+00 8.192000000000e+03
     0.000000000000e+00 0.000000000000e+00 0.000000000000e+00 1.980000000000e+02
> EPH S29 SBAS
S29 2026 04 06 19 58 08 2.281740307808e-08 0.000000000000e+00 9.999000000000e+08
    -3.878667200000e+02 1.111875000000e-03 0.000000000000e+00 4.700000000000e+01
     4.217050632000e+04-1.662500000000e-04 0.000000000000e+00 8.192000000000e+03
    -1.644320000000e+01 1.708000000000e-03 0.000000000000e+00 1.500000000000e+01
> EPH S37 SBAS
S37 2026 04 06 19 58 24 2.328306436539e-09 0.000000000000e+00 9.999000000000e+08
    -2.538442440000e+04 8.268750000000e-04 0.000000000000e+00 4.700000000000e+01
     3.367325704000e+04 1.812500000000e-05 0.000000000000e+00 8.192000000000e+03
     5.047320000000e+01-1.076000000000e-03 0.000000000000e+00 1.500000000000e+01
> EPH S30 SBAS
S30 2026 04 06 19 58 56-6.756745278835e-07 0.000000000000e+00 9.999000000000e+08
    -3.234089952000e+04 7.793750000000e-04 5.000000000000e-08 4.700000000000e+01
     2.707246608000e+04 1.785625000000e-03 0.000000000000e+00 8.192000000000e+03
    -2.738988000000e+02 2.435200000000e-02 6.875000000000e-07 6.200000000000e+01
> EPH S43 SBAS
S43 2026 04 06 19 58 56-7.869675755501e-07 0.000000000000e+00 9.999000000000e+08
    -1.478681040000e+04 4.768125000000e-03 5.000000000000e-08 4.700000000000e+01
     3.950594936000e+04 1.358750000000e-03-2.000000000000e-07 8.192000000000e+03
     6.291760000000e+01-1.207520000000e-01-1.875000000000e-07 6.100000000000e+01
> EPH S44 SBAS
S44 2026 04 06 19 58 56 3.408640623093e-07 0.000000000000e+00 9.999000000000e+08
     7.281234560000e+03 4.955625000000e-03 3.750000000000e-08 4.700000000000e+01
     4.154105600000e+04 3.743750000000e-04-2.625000000000e-07 8.192000000000e+03
     3.941084000000e+02-1.420000000000e-01-1.062500000000e-06 6.000000000000e+01
> EPH S36 SBAS
S36 2026 04 06 19 58 56 0.000000000000e+00 0.000000000000e+00 9.999000000000e+08
     4.200368800000e+04 0.000000000000e+00 0.000000000000e+00 4.700000000000e+01
     3.674846960000e+03 0.000000000000e+00 0.000000000000e+00 8.192000000000e+03
     0.000000000000e+00 0.000000000000e+00 0.000000000000e+00 1.160000000000e+02
> EPH S22 SBAS
S22 2026 04 06 19 58 56 0.000000000000e+00 0.000000000000e+00 9.999000000000e+08
    -3.389392800000e+04 0.000000000000e+00 0.000000000000e+00 4.700000000000e+01
     2.508018800000e+04 0.000000000000e+00 0.000000000000e+00 8.192000000000e+03
     0.000000000000e+00 0.000000000000e+00 0.000000000000e+00 1.500000000000e+01
> EPH S29 SBAS
S29 2026 04 06 19 59 12 2.281740307808e-08 0.000000000000e+00 9.999000000000e+08
    -3.877956000000e+02 1.110625000000e-03 0.000000000000e+00 4.700000000000e+01
     4.217049560000e+04-1.687500000000e-04 0.000000000000e+00 8.192000000000e+03
    -1.633400000000e+01 1.712000000000e-03 0.000000000000e+00 1.500000000000e+01
> EPH S31 SBAS
S31 2026 04 06 20 00 00-4.377216100693e-08-1.091393642128e-11 9.999000000000e+08
    -1.914328752000e+04 9.375000000000e-05 0.000000000000e+00 0.000000000000e+00
    -3.756805120000e+04 1.000000000000e-05-1.250000000000e-08 2.000000000000e+00
     2.345600000000e+00 1.160000000000e-04 0.000000000000e+00 4.900000000000e+01
> EPH S32 SBAS
S32 2026 04 06 20 00 00 0.000000000000e+00 0.000000000000e+00 9.999000000000e+08
    -2.562062320000e+03 1.627500000000e-03 1.250000000000e-08 4.700000000000e+01
     4.209898520000e+04 1.425000000000e-04-3.750000000000e-08 8.192000000000e+03
     1.202000000000e+00 1.032000000000e-03 0.000000000000e+00 1.500000000000e+01
> EPH S33 SBAS
S33 2026 04 06 20 00 00-4.563480615616e-08-1.273292582482e-11 9.999000000000e+08
    -2.662670304000e+04 4.281250000000e-04 1.250000000000e-08 0.000000000000e+00
    -3.269001552000e+04-1.231250000000e-04-2.500000000000e-08 2.000000000000e+00
     1.789480000000e+01-7.200000000000e-05-6.250000000000e-08 2.300000000000e+01
> EPH S35 SBAS
S35 2026 04 06 20 00 00 4.237517714500e-08-1.364242052659e-11 9.999000000000e+08
    -2.418870776000e+04 1.311250000000e-03 0.000000000000e+00 0.000000000000e+00
    -3.452421328000e+04-6.587500000000e-04-6.250000000000e-08 2.000000000000e+00
     3.183200000000e+00-8.520000000000e-04 0.000000000000e+00 9.500000000000e+01
> EPH S37 SBAS
S37 2026 04 06 19 59 28 2.328306436539e-09 0.000000000000e+00 9.999000000000e+08
    -2.538437152000e+04 8.243750000000e-04 0.000000000000e+00 4.700000000000e+01
     3.367325808000e+04 1.500000000000e-05 0.000000000000e+00 8.192000000000e+03
     5.040400000000e+01-1.092000000000e-03 0.000000000000e+00 1.500000000000e+01
> EPH S27 SBAS
S27 2026 04 06 20 00 00 9.313225746155e-10 9.094947017729e-12 9.999000000000e+08
     2.417325720000e+04-2.287500000000e-04 3.750000000000e-08 4.700000000000e+01
     3.453440928000e+04-4.762500000000e-04 1.875000000000e-07 8.192000000000e+03
     1.358617200000e+03-3.025200000000e-02-7.187500000000e-06 1.500000000000e+01
> EPH S28 SBAS
S28 2026 04 06 20 00 00 6.519258022308e-09 1.818989403546e-11 9.999000000000e+08
     5.157882640000e+03 4.600000000000e-04-8.750000000000e-08 0.000000000000e+00
     4.185235112000e+04-6.256250000000e-04 1.250000000000e-08 4.096000000000e+03
     2.089200000000e+00 1.460000000000e-03 0.000000000000e+00 1.400000000000e+01
